EYESAT-1 (AO-27)        
1 22825U 93061C   17336.88898221 -.00000002  00000-0  17091-4 0  9999
2 22825  98.8364 304.7402 0008060 192.3967 167.7018 14.30015251261247
CUTE-1 (CO-55)          
1 27844U 03031E   17336.93995487  .00000067  00000-0  50093-4 0  9990
2 27844  98.6890 343.4871 0009179 214.3543 145.7042 14.22079368748267
CUBESAT XI-IV (CO-57)   
1 27848U 03031J   17336.70420730  .00000058  00000-0  46393-4 0  9991
2 27848  98.6979 343.5825 0008908 225.7134 134.3313 14.21688332748115
CUBESAT XI 5            
1 28895U 05043F   17336.91895522  .00000172  00000-0  41904-4 0  9997
2 28895  97.8831 131.6487 0016133 334.0806  25.9587 14.63480460644936
CUTE-1.7+APD II (CO-65) 
1 32785U 08021C   17336.83409734  .00000285  00000-0  36661-4 0  9995
2 32785  97.5561 353.3170 0012388 335.7650  24.2983 14.88018401519977
COMPASS-1               
1 32787U 08021E   17336.13688536  .00000452  00000-0  48842-4 0  9999
2 32787  97.5447   2.5301 0011189 301.0037  59.0084 14.92834124520551
AAUSAT-II               
1 32788U 08021F   17337.14864648  .00000522  00000-0  53902-4 0  9993
2 32788  97.5420   6.6297 0010457 287.2026  72.8050 14.94133003520907
DELFI-C3 (DO-64)        
1 32789U 08021G   17336.74939442  .00001435  00000-0  10383-3 0  9993
2 32789  97.5401  31.3053 0011203 243.9285 116.0789 15.05546402522229
CANX-2                  
1 32790U 08021H   17336.97996914  .00000244  00000-0  32361-4 0  9995
2 32790  97.5552 351.7264 0013126 336.9021  23.1605 14.87731831519938
SEEDS II (CO-66)        
1 32791U 08021J   17337.10590019  .00000333  00000-0  39632-4 0  9995
2 32791  97.5500 358.4424 0012306 316.0095  44.0143 14.90406482520300
SWISSCUBE               
1 35932U 09051B   17336.91040513  .00000157  00000-0  46435-4 0  9999
2 35932  98.5187 118.6856 0008810  93.8328 266.3876 14.56093874434834
BEESAT                  
1 35933U 09051C   17336.88335412  .00000133  00000-0  40916-4 0  9993
2 35933  98.5224 120.0782 0006983 104.8445 255.3525 14.56204404434892
ITUPSAT 1               
1 35935U 09051E   17337.10273846  .00000096  00000-0  33263-4 0  9998
2 35935  98.5337 120.5569 0009289  99.5146 260.7101 14.55389708434808
TISAT 1                 
1 36799U 10035E   17336.91617177  .00000534  00000-0  60568-4 0  9993
2 36799  98.0818 103.2963 0013463 129.8953 230.3450 14.90623197400719
M-CUBED & EXP-1 PRIME   
1 37855U 11061F   17337.17499475  .00002300  00000-0  12589-3 0  9997
2 37855 101.7147 294.4674 0178457 302.1237  56.2762 15.03845337332181
HORYU 2                 
1 38340U 12025D   17336.95701852  .00000256  00000-0  45693-4 0  9999
2 38340  98.3760 346.8426 0012753 113.2570 246.9982 14.75457560287767
STRAND-1                
1 39090U 13009E   17336.83187029  .00000054  00000-0  34470-4 0  9993
2 39090  98.5365 180.5589 0009590 154.1234 206.0433 14.34999293249644
BRITE-AUSTRIA           
1 39091U 13009F   17336.63018622  .00000033  00000-0  27038-4 0  9993
2 39091  98.5331 179.6939 0010766 162.7203 197.4350 14.35051953249648
UNIBRITE                
1 39092U 13009G   17336.78373593  .00000032  00000-0  26536-4 0  9992
2 39092  98.5341 179.5217 0009785 155.2566 204.9091 14.34926367249641
AIST-2                  
1 39133U 13015D   17337.15660453  .00000207  00000-0  27227-4 0  9993
2 39133  64.8729 111.5088 0036402 253.6160 106.0957 15.04438931253713
SOMP                    
1 39134U 13015E   17336.66046749  .00001892  00000-0  99824-4 0  9998
2 39134  64.8661  42.3567 0030688 238.8762 120.9354 15.18565377255050
BEESAT-3                
1 39135U 13015F   17336.82871983  .00001475  00000-0  85270-4 0  9990
2 39135  64.8707  52.6774 0032999 258.0538 101.6887 15.16194135254872
BEESAT-2                
1 39136U 13015G   17336.73079461  .00001478  00000-0  86690-4 0  9992
2 39136  64.8706  55.2586 0032064 259.8101  99.9408 15.15680670254422
NEE-01 PEGASUS          
1 39151U 13018B   17337.21845698  .00000203  00000-0  33971-4 0  9998
2 39151  97.9815  67.6603 0016322 219.5507 140.4515 14.79819149248536
CUBEBUG-1 (CAPITAN BETO)
1 39153U 13018D   17337.22260177  .00000262  00000-0  41361-4 0  9991
2 39153  97.9843  68.6164 0016276 217.3389 142.6693 14.80297966248590
ESTCUBE 1               
1 39161U 13021C   17337.12556922  .00000201  00000-0  39886-4 0  9991
2 39161  98.0208  60.8716 0009093 332.3216  27.7507 14.71989230245607
POPACS 1                
1 39268U 13055D   17337.06100552  .00003754  00000-0  10499-3 0  9997
2 39268  81.0020 191.7483 0644973  83.7562 283.6645 14.32696067216353
POPACS 2                
1 39269U 13055E   17336.62268169  .00002893  00000-0  83205-4 0  9997
2 39269  81.0163 210.2112 0696587 131.8836 234.3972 14.21156438213999
POPACS 3                
1 39270U 13055F   17336.65193667  .00001903  00000-0  58850-4 0  9991
2 39270  81.0190 220.1123 0722413 161.5705 201.3181 14.14036134193878
ZACUBE-1 (TSHEPISOSAT)  
1 39417U 13066B   17336.69035900  .00000298  00000-0  43916-4 0  9998
2 39417  97.6103  10.5881 0060652  79.0236 281.7792 14.80832085217714
WNISAT-1                
1 39423U 13066H   17337.14083261  .00000145  00000-0  38990-4 0  9996
2 39423  97.7012 311.6868 0174091 270.1317  87.9941 14.52904859213769
TRITON-1                
1 39427U 13066M   17336.94571401  .00000232  00000-0  44933-4 0  9996
2 39427  97.6362 340.9822 0114502 167.4411 192.9691 14.67572547215604
GOMX 1                  
1 39430U 13066Q   17337.16554232  .00000179  00000-0  41780-4 0  9995
2 39430  97.6771 323.4286 0150619 229.1044 129.7030 14.58983499214560
BRITE-PL                
1 39431U 13066R   17336.92779995  .00000068  00000-0  25296-4 0  9995
2 39431  97.7300 299.9122 0201636 313.7934  44.6732 14.46894359212655
HUMSAT-D                
1 39433U 13066T   17336.70861032  .00000668  00000-0  71359-4 0  9994
2 39433  97.6325  34.6786 0031372  19.4709 340.7701 14.91670413219130
EAGLE 2                 
1 39436U 13066W   17336.82008472  .00050590  00000-0  87464-3 0  9993
2 39436  97.7136  92.4144 0006991 196.7952 163.3069 15.50785826222649
CUBEBUG-2 (LO-74)       
1 39440U 13066AA  17336.69714072  .00000273  00000-0  44863-4 0  9993
2 39440  97.6144 358.4941 0082010 113.2335 247.7538 14.75569515215749
NEE-02 KRYSAOR          
1 39441U 13066AB  17336.86911638  .00000189  00000-0  33879-4 0  9991
2 39441  97.6132 357.1192 0083413 116.8357 244.1412 14.74704012215689
FUNCUBE-1 (AO-73)       
1 39444U 13066AE  17336.65296631  .00000343  00000-0  48799-4 0  9999
2 39444  97.6118  11.8246 0059775  75.3985 285.3847 14.81589870216557
UWE-3                   
1 39446U 13066AG  17337.12404662  .00000262  00000-0  41481-4 0  9990
2 39446  97.6111   4.6121 0071800  95.0354 265.9059 14.78103313216151
BRITE-TORONTO           
1 40020U 14033L   17337.18961588  .00000120  00000-0  28880-4 0  9997
2 40020  97.8097 200.1443 0088261 148.4064 212.2483 14.66447500184860
DUCHIFAT-1              
1 40021U 14033M   17336.72540185  .00000561  00000-0  63800-4 0  9993
2 40021  97.9157 250.0965 0014310 104.0008 256.2801 14.90120082187698
FLOCK 1C-10             
1 40023U 14033P   17336.75267347  .00000367  00000-0  44903-4 0  9991
2 40023  97.9176 248.9798 0013698 109.1384 251.1282 14.89026624187582
NANOSATC-BR1            
1 40024U 14033Q   17336.80535397  .00000386  00000-0  46504-4 0  9991
2 40024  97.9106 248.7862 0013633 105.2476 255.0249 14.89411565187649
QB50P1                  
1 40025U 14033R   17337.21266440  .00000316  00000-0  39911-4 0  9995
2 40025  97.9079 247.9728 0013856 107.3334 252.9400 14.88583197187638
FLOCK 1C-7              
1 40026U 14033S   17336.82051568  .00000537  00000-0  61859-4 0  9996
2 40026  97.9189 249.9994 0012272 107.8394 252.4165 14.89766604187652
FLOCK 1C-1              
1 40027U 14033T   17336.71364181  .00000754  00000-0  85886-4 0  9990
2 40027  97.9174 249.2151 0013603 107.2670 253.0066 14.89087043187598
POPSAT-HIP-1            
1 40028U 14033U   17337.19214093  .00000386  00000-0  47555-4 0  9992
2 40028  97.9107 248.2769 0015306 105.4638 254.8301 14.88444429187613
FLOCK 1C-2              
1 40029U 14033V   17336.74046872  .00001253  00000-0  13853-3 0  9998
2 40029  97.9191 249.0895 0015035 103.8918 256.3946 14.89121323187593
FLOCK 1C-4              
1 40031U 14033X   17336.77411369  .00000815  00000-0  92554-4 0  9990
2 40031  97.9183 249.0709 0015467 102.8062 257.4958 14.88951237187587
QB50P2                  
1 40032U 14033Y   17336.70545893  .00000346  00000-0  43658-4 0  9994
2 40032  97.9042 246.4041 0013257 104.4522 255.8166 14.88133503186980
FLOCK 1C-11             
1 40033U 14033Z   17336.73314640  .00001154  00000-0  12428-3 0  9990
2 40033  97.9211 250.8532 0013189  95.5278 264.7473 14.90370298187691
ANTELSAT                
1 40034U 14033AA  17336.73204978  .00000294  00000-0  51157-4 0  9990
2 40034  97.8355 215.2197 0060178 110.1102 250.6596 14.73817710185753
FLOCK 1C-9              
1 40035U 14033AB  17336.72303041  .00001079  00000-0  12005-3 0  9991
2 40035  97.9219 249.5108 0012825  97.6306 262.6397 14.89162010187596
FLOCK 1C-6              
1 40036U 14033AC  17337.20237951  .00001360  00000-0  14940-3 0  9995
2 40036  97.9234 250.2463 0012940  96.3230 263.9472 14.89271937187673
PERSEUS-M2              
1 40037U 14033AD  17336.77417121  .00000119  00000-0  19763-4 0  9996
2 40037  97.9050 244.5891 0015745 111.1767 249.1133 14.86298573186859
FLOCK 1C-5              
1 40038U 14033AE  17336.74158536  .00001112  00000-0  12325-3 0  9996
2 40038  97.9198 249.5566 0015208  95.9295 264.3635 14.89240506187602
PERSEUS-M1              
1 40039U 14033AF  17337.22062490  .00000104  00000-0  18149-4 0  9995
2 40039  97.9053 244.5084 0015634 106.4920 253.8015 14.85921528187374
FLOCK 1C-8              
1 40040U 14033AG  17337.18280166  .00000669  00000-0  73079-4 0  9993
2 40040  97.9239 252.6876 0013871  83.2434 277.0363 14.91195352187812
